{
  "type": "FeatureCollection",
  "features": [
    {
      "type": "Feature",
      "properties": {
        "norad_id": 31608,
        "name": "FENGYUN 1C DEB",
        "group": "fengyun-1c-debris",
        "lat": 19.237119439994046,
        "lon": -66.32135524321147,
        "alt_km": 689.1365944411064,
        "timestamp": "2025-12-18T07:01:54.872998+00:00",
        "meta_object_name": "FENGYUN 1C DEB",
        "meta_object_id": "1999-025BZN",
        "meta_epoch": "2025-12-17T14:09:29.850912",
        "meta_mean_motion": 14.85908283,
        "meta_eccentricity": 0.01457059,
        "meta_inclination": 98.3797,
        "meta_ra_of_asc_node": 109.9897,
        "meta_arg_of_pericenter": 22.0076,
        "meta_mean_anomaly": 338.7309,
        "meta_ephemeris_type": 0,
        "meta_classification_type": "U",
        "meta_norad_cat_id": 31608,
        "meta_element_set_no": 999,
        "meta_rev_at_epoch": 98705,
        "meta_bstar": 0.00045964647,
        "meta_mean_motion_dot": 4.79e-05,
        "meta_mean_motion_ddot": 0,
        "tle_line1": "1 31608U 99025BZN 25351.58992883  .00004790  00000+0  45965-3 0  9992",
        "tle_line2": "2 31608  98.3797 109.9897 0145705  22.0076 338.7309 14.85908283987055"
      },
      "geometry": {
        "type": "Point",
        "coordinates": [
          -66.32135524321147,
          19.237119439994046
        ]
      }
    },
    {
      "type": "Feature",
      "properties": {
        "norad_id": 31609,
        "name": "FENGYUN 1C DEB",
        "group": "fengyun-1c-debris",
        "lat": 33.16742451443939,
        "lon": 14.915157162344686,
        "alt_km": 835.6665216898391,
        "timestamp": "2025-12-18T07:01:54.873008+00:00",
        "meta_object_name": "FENGYUN 1C DEB",
        "meta_object_id": "1999-025BZP",
        "meta_epoch": "2025-12-15T00:59:33.000288",
        "meta_mean_motion": 14.15782518,
        "meta_eccentricity": 0.00948096,
        "meta_inclination": 99.2167,
        "meta_ra_of_asc_node": 17.645,
        "meta_arg_of_pericenter": 313.866,
        "meta_mean_anomaly": 74.7981,
        "meta_ephemeris_type": 0,
        "meta_classification_type": "U",
        "meta_norad_cat_id": 31609,
        "meta_element_set_no": 999,
        "meta_rev_at_epoch": 66117,
        "meta_bstar": 0.0017564085,
        "meta_mean_motion_dot": 3.557e-05,
        "meta_mean_motion_ddot": 0,
        "tle_line1": "1 31609U 99025BZP 25349.04135417  .00003557  00000+0  17564-2 0  9996",
        "tle_line2": "2 31609  99.2167  17.6450 0094809 313.8660  74.7981 14.15782518661174"
      },
      "geometry": {
        "type": "Point",
        "coordinates": [
          14.915157162344686,
          33.16742451443939
        ]
      }
    },
    {
      "type": "Feature",
      "properties": {
        "norad_id": 31612,
        "name": "FENGYUN 1C DEB",
        "group": "fengyun-1c-debris",
        "lat": 35.07458140247667,
        "lon": -96.83957860995697,
        "alt_km": 333.5342810633192,
        "timestamp": "2025-12-18T07:01:54.873018+00:00",
        "meta_object_name": "FENGYUN 1C DEB",
        "meta_object_id": "1999-025BZS",
        "meta_epoch": "2025-12-15T05:34:20.315712",
        "meta_mean_motion": 15.71781669,
        "meta_eccentricity": 0.00321406,
        "meta_inclination": 100.3339,
        "meta_ra_of_asc_node": 265.9962,
        "meta_arg_of_pericenter": 93.9662,
        "meta_mean_anomaly": 266.5266,
        "meta_ephemeris_type": 0,
        "meta_classification_type": "U",
        "meta_norad_cat_id": 31612,
        "meta_element_set_no": 999,
        "meta_rev_at_epoch": 44,
        "meta_bstar": 0.0014945855,
        "meta_mean_motion_dot": 0.00203446,
        "meta_mean_motion_ddot": 0,
        "tle_line1": "1 31612U 99025BZS 25349.23217958  .00203446  00000+0  14946-2 0  9992",
        "tle_line2": "2 31612 100.3339 265.9962 0032140  93.9662 266.5266 15.71781669   440"
      },
      "geometry": {
        "type": "Point",
        "coordinates": [
          -96.83957860995697,
          35.07458140247667
        ]
      }
    },
    {
      "type": "Feature",
      "properties": {
        "norad_id": 31613,
        "name": "FENGYUN 1C DEB",
        "group": "fengyun-1c-debris",
        "lat": 55.62311275583459,
        "lon": 166.09722709601698,
        "alt_km": 806.5578257844008,
        "timestamp": "2025-12-18T07:01:54.873030+00:00",
        "meta_object_name": "FENGYUN 1C DEB",
        "meta_object_id": "1999-025BZT",
        "meta_epoch": "2025-12-17T11:23:27.674304",
        "meta_mean_motion": 13.63455514,
        "meta_eccentricity": 0.03426627,
        "meta_inclination": 98.4241,
        "meta_ra_of_asc_node": 177.8968,
        "meta_arg_of_pericenter": 93.4924,
        "meta_mean_anomaly": 270.5473,
        "meta_ephemeris_type": 0,
        "meta_classification_type": "U",
        "meta_norad_cat_id": 31613,
        "meta_element_set_no": 999,
        "meta_rev_at_epoch": 91826,
        "meta_bstar": 0.0010547449,
        "meta_mean_motion_dot": 1.205e-05,
        "meta_mean_motion_ddot": 0,
        "tle_line1": "1 31613U 99025BZT 25351.47462586  .00001205  00000+0  10547-2 0  9993",
        "tle_line2": "2 31613  98.4241 177.8968 0342662  93.4924 270.5473 13.63455514918265"
      },
      "geometry": {
        "type": "Point",
        "coordinates": [
          166.09722709601698,
          55.62311275583459
        ]
      }
    },
    {
      "type": "Feature",
      "properties": {
        "norad_id": 31614,
        "name": "FENGYUN 1C DEB",
        "group": "fengyun-1c-debris",
        "lat": -80.72940797150018,
        "lon": 3.3734534940034426,
        "alt_km": 577.8415320223703,
        "timestamp": "2025-12-18T07:01:54.873043+00:00",
        "meta_object_name": "FENGYUN 1C DEB",
        "meta_object_id": "1999-025BZU",
        "meta_epoch": "2025-12-17T17:15:24.047712",
        "meta_mean_motion": 14.9826263,
        "meta_eccentricity": 0.00197666,
        "meta_inclination": 98.9753,
        "meta_ra_of_asc_node": 258.2429,
        "meta_arg_of_pericenter": 353.4144,
        "meta_mean_anomaly": 60.441,
        "meta_ephemeris_type": 0,
        "meta_classification_type": "U",
        "meta_norad_cat_id": 31614,
        "meta_element_set_no": 999,
        "meta_rev_at_epoch": 96504,
        "meta_bstar": 0.0056127552,
        "meta_mean_motion_dot": 0.00067529,
        "meta_mean_motion_ddot": 0,
        "tle_line1": "1 31614U 99025BZU 25351.71902833  .00067529  00000+0  56128-2 0  9991",
        "tle_line2": "2 31614  98.9753 258.2429 0019766 353.4144  60.4410 14.98262630965043"
      },
      "geometry": {
        "type": "Point",
        "coordinates": [
          3.3734534940034426,
          -80.72940797150018
        ]
      }
    },
    {
      "type": "Feature",
      "properties": {
        "norad_id": 31615,
        "name": "FENGYUN 1C DEB",
        "group": "fengyun-1c-debris",
        "lat": -70.14986699923743,
        "lon": 70.5303843880765,
        "alt_km": 664.7114230054976,
        "timestamp": "2025-12-18T07:01:54.873053+00:00",
        "meta_object_name": "FENGYUN 1C DEB",
        "meta_object_id": "1999-025BZV",
        "meta_epoch": "2025-12-17T21:19:17.155200",
        "meta_mean_motion": 14.35438155,
        "meta_eccentricity": 0.01662607,
        "meta_inclination": 99.1384,
        "meta_ra_of_asc_node": 43.6226,
        "meta_arg_of_pericenter": 301.5799,
        "meta_mean_anomaly": 56.9245,
        "meta_ephemeris_type": 0,
        "meta_classification_type": "U",
        "meta_norad_cat_id": 31615,
        "meta_element_set_no": 999,
        "meta_rev_at_epoch": 65352,
        "meta_bstar": 0.0023099232,
        "meta_mean_motion_dot": 7.716e-05,
        "meta_mean_motion_ddot": 0,
        "tle_line1": "1 31615U 99025BZV 25351.88839300  .00007716  00000+0  23099-2 0  9991",
        "tle_line2": "2 31615  99.1384  43.6226 0166260 301.5799  56.9245 14.35438155653521"
      },
      "geometry": {
        "type": "Point",
        "coordinates": [
          70.5303843880765,
          -70.14986699923743
        ]
      }
    },
    {
      "type": "Feature",
      "properties": {
        "norad_id": 31618,
        "name": "FENGYUN 1C DEB",
        "group": "fengyun-1c-debris",
        "lat": 65.86500263209592,
        "lon": 113.80156412878418,
        "alt_km": 865.9090351265722,
        "timestamp": "2025-12-18T07:01:54.873063+00:00",
        "meta_object_name": "FENGYUN 1C DEB",
        "meta_object_id": "1999-025BZY",
        "meta_epoch": "2025-12-16T05:42:38.070432",
        "meta_mean_motion": 14.21025507,
        "meta_eccentricity": 0.0156911,
        "meta_inclination": 99.4431,
        "meta_ra_of_asc_node": 133.4105,
        "meta_arg_of_pericenter": 316.1709,
        "meta_mean_anomaly": 42.7101,
        "meta_ephemeris_type": 0,
        "meta_classification_type": "U",
        "meta_norad_cat_id": 31618,
        "meta_element_set_no": 999,
        "meta_rev_at_epoch": 70314,
        "meta_bstar": 0.00029177742,
        "meta_mean_motion_dot": 6.65e-06,
        "meta_mean_motion_ddot": 0,
        "tle_line1": "1 31618U 99025BZY 25350.23794063  .00000665  00000+0  29178-3 0  9999",
        "tle_line2": "2 31618  99.4431 133.4105 0156911 316.1709  42.7101 14.21025507703145"
      },
      "geometry": {
        "type": "Point",
        "coordinates": [
          113.80156412878418,
          65.86500263209592
        ]
      }
    }
  ]
}